{
    "links": {
        "self": "http://www.neowsapp.com/rest/v1/neo/3836891?api_key=iIulBulltgU6a56xZRHN4H3l9WmuAYTsLGpBGhQ2"
    },
    "id": "3836891",
    "neo_reference_id": "3836891",
    "name": "(2018 XD4)",
    "designation": "2018 XD4",
    "nasa_jpl_url": "http://ssd.jpl.nasa.gov/sbdb.cgi?sstr=3836891",
    "absolute_magnitude_h": 25.3,
    "estimated_diameter": {
        "kilometers": {
            "estimated_diameter_min": 0.0231502122,
            "estimated_diameter_max": 0.0517654482
        },
        "meters": {
            "estimated_diameter_min": 23.150212221,
            "estimated_diameter_max": 51.7654482198
        },
        "miles": {
            "estimated_diameter_min": 0.0143848705,
            "estimated_diameter_max": 0.0321655483
        },
        "feet": {
            "estimated_diameter_min": 75.9521422633,
            "estimated_diameter_max": 169.8341531374
        }
    },
    "is_potentially_hazardous_asteroid": false,
    "close_approach_data": [
        {
            "close_approach_date": "2018-12-05",
            "close_approach_date_full": "2018-Dec-05 10:00",
            "epoch_date_close_approach": 1544004000000,
            "relative_velocity": {
                "kilometers_per_second": "17.1171658513",
                "kilometers_per_hour": "61621.7970648092",
                "miles_per_hour": "38289.3882928533"
            },
            "miss_distance": {
                "astronomical": "0.0299899162",
                "lunar": "11.6660774018",
                "kilometers": "4486427.584998494",
                "miles": "2787736.8322434572"
            },
            "orbiting_body": "Earth"
        }
    ],
    "orbital_data": {
        "orbit_id": "1",
        "orbit_determination_date": "2018-12-14 20:48:46",
        "first_observation_date": "2018-12-13",
        "last_observation_date": "2018-12-14",
        "data_arc_in_days": 1,
        "observations_used": 11,
        "orbit_uncertainty": "9",
        "minimum_orbit_intersection": ".0167642",
        "jupiter_tisserand_invariant": "4.000",
        "epoch_osculation": "2458466.5",
        "eccentricity": ".5813618599341716",
        "semi_major_axis": "1.69289536619011",
        "inclination": "3.9009256006545",
        "ascending_node_longitude": "236.9147983056771",
        "orbital_period": "804.5325159651424",
        "perihelion_distance": ".7087105674278871",
        "perihelion_argument": "118.2841719260478",
        "aphelion_distance": "2.677080164952332",
        "perihelion_time": "2458411.239718294833",
        "mean_anomaly": "24.72703218215489",
        "mean_motion": ".4474648231813636",
        "equinox": "J2000",
        "orbit_class": {
            "orbit_class_type": "APO",
            "orbit_class_description": "Near-Earth asteroid orbits which cross the Earth’s orbit similar to that of 1862 Apollo",
            "orbit_class_range": "a (semi-major axis) > 1.0 AU; q (perihelion) < 1.017 AU"
        }
    },
    "is_sentry_object": false
}